{"fetched_at":"2026-07-17T17:38:20.702Z","source":"https://celestrak.org/NORAD/elements/gp.php?NAME=ICEYE&FORMAT=JSON","constellation":"iceye","records":[{"OBJECT_NAME":"ICEYE-X72","OBJECT_ID":"2026-067CS","EPOCH":"2026-07-17T00:00:02.000160","CLASSIFICATION_TYPE":"U","MEAN_MOTION":14.96511418,"ECCENTRICITY":0.00006574,"INCLINATION":97.766,"RA_OF_ASC_NODE":155.9512,"ARG_OF_PERICENTER":156.2388,"MEAN_ANOMALY":336.5177,"EPHEMERIS_TYPE":0,"NORAD_CAT_ID":68504,"ELEMENT_SET_NO":999,"REV_AT_EPOCH":577,"BSTAR":-0.0043982268,"MEAN_MOTION_DOT":-0.00049657,"MEAN_MOTION_DDOT":0},{"OBJECT_NAME":"ICEYE-X78","OBJECT_ID":"2026-100R","EPOCH":"2026-07-16T17:20:34.213344","CLASSIFICATION_TYPE":"U","MEAN_MOTION":14.9181358,"ECCENTRICITY":0.00034854,"INCLINATION":97.7331,"RA_OF_ASC_NODE":94.6264,"ARG_OF_PERICENTER":51.9112,"MEAN_ANOMALY":308.242,"EPHEMERIS_TYPE":0,"NORAD_CAT_ID":68995,"ELEMENT_SET_NO":999,"REV_AT_EPOCH":1110,"BSTAR":0.000061117471,"MEAN_MOTION_DOT":0.00000561,"MEAN_MOTION_DDOT":0},{"OBJECT_NAME":"ICEYE-X82","OBJECT_ID":"2026-100S","EPOCH":"2026-07-17T03:32:24.865728","CLASSIFICATION_TYPE":"U","MEAN_MOTION":14.91429725,"ECCENTRICITY":0.00056288,"INCLINATION":97.7325,"RA_OF_ASC_NODE":94.9862,"ARG_OF_PERICENTER":58.7895,"MEAN_ANOMALY":301.3874,"EPHEMERIS_TYPE":0,"NORAD_CAT_ID":68996,"ELEMENT_SET_NO":999,"REV_AT_EPOCH":1116,"BSTAR":0.00012359892,"MEAN_MOTION_DOT":0.0000118,"MEAN_MOTION_DDOT":0}]}
